{
    "links": {
        "self": "http://www.neowsapp.com/rest/v1/neo/3607963?api_key=iIulBulltgU6a56xZRHN4H3l9WmuAYTsLGpBGhQ2"
    },
    "id": "3607963",
    "neo_reference_id": "3607963",
    "name": "(2012 QB18)",
    "designation": "2012 QB18",
    "nasa_jpl_url": "http://ssd.jpl.nasa.gov/sbdb.cgi?sstr=3607963",
    "absolute_magnitude_h": 24.0,
    "estimated_diameter": {
        "kilometers": {
            "estimated_diameter_min": 0.0421264611,
            "estimated_diameter_max": 0.0941976306
        },
        "meters": {
            "estimated_diameter_min": 42.1264610556,
            "estimated_diameter_max": 94.1976305719
        },
        "miles": {
            "estimated_diameter_min": 0.0261761612,
            "estimated_diameter_max": 0.0585316759
        },
        "feet": {
            "estimated_diameter_min": 138.2101784897,
            "estimated_diameter_max": 309.0473542854
        }
    },
    "is_potentially_hazardous_asteroid": false,
    "close_approach_data": [
        {
            "close_approach_date": "1922-04-28",
            "close_approach_date_full": "1922-Apr-28 15:33",
            "epoch_date_close_approach": -1504600020000,
            "relative_velocity": {
                "kilometers_per_second": "14.4196546649",
                "kilometers_per_hour": "51910.7567936184",
                "miles_per_hour": "32255.3255199014"
            },
            "miss_distance": {
                "astronomical": "0.1431299975",
                "lunar": "55.6775690275",
                "kilometers": "21411942.759105325",
                "miles": "13304764.280390485"
            },
            "orbiting_body": "Earth"
        },
        {
            "close_approach_date": "2006-07-25",
            "close_approach_date_full": "2006-Jul-25 03:05",
            "epoch_date_close_approach": 1153796700000,
            "relative_velocity": {
                "kilometers_per_second": "12.8151843096",
                "kilometers_per_hour": "46134.6635145949",
                "miles_per_hour": "28666.2857821659"
            },
            "miss_distance": {
                "astronomical": "0.0374387353",
                "lunar": "14.5636680317",
                "kilometers": "5600755.056373811",
                "miles": "3480147.8154321518"
            },
            "orbiting_body": "Mars"
        },
        {
            "close_approach_date": "2012-03-12",
            "close_approach_date_full": "2012-Mar-12 08:01",
            "epoch_date_close_approach": 1331539260000,
            "relative_velocity": {
                "kilometers_per_second": "13.58279859",
                "kilometers_per_hour": "48898.0749240763",
                "miles_per_hour": "30383.3621660184"
            },
            "miss_distance": {
                "astronomical": "0.0263986098",
                "lunar": "10.2690592122",
                "kilometers": "3949175.797041126",
                "miles": "2453904.0512384988"
            },
            "orbiting_body": "Mars"
        },
        {
            "close_approach_date": "2012-08-16",
            "close_approach_date_full": "2012-Aug-16 15:27",
            "epoch_date_close_approach": 1345130820000,
            "relative_velocity": {
                "kilometers_per_second": "12.4051035583",
                "kilometers_per_hour": "44658.372809916",
                "miles_per_hour": "27748.9761495836"
            },
            "miss_distance": {
                "astronomical": "0.0200709041",
                "lunar": "7.8075816949",
                "kilometers": "3002564.502334267",
                "miles": "1865707.0677642046"
            },
            "orbiting_body": "Earth"
        }
    ],
    "orbital_data": {
        "orbit_id": "11",
        "orbit_determination_date": "2017-04-06 08:49:09",
        "first_observation_date": "2012-08-25",
        "last_observation_date": "2012-09-16",
        "data_arc_in_days": 22,
        "observations_used": 36,
        "orbit_uncertainty": "7",
        "minimum_orbit_intersection": ".0128674",
        "jupiter_tisserand_invariant": "3.635",
        "epoch_osculation": "2459000.5",
        "eccentricity": ".5531037181415429",
        "semi_major_axis": "1.991249347112269",
        "inclination": "7.502512789312014",
        "ascending_node_longitude": "150.6766447371319",
        "orbital_period": "1026.329699431957",
        "perihelion_distance": ".8898819294775534",
        "perihelion_argument": "125.38881893",
        "aphelion_distance": "3.092616764746985",
        "perihelion_time": "2459200.454164812144",
        "mean_anomaly": "289.863182004562",
        "mean_motion": ".350764476755617",
        "equinox": "J2000",
        "orbit_class": {
            "orbit_class_type": "APO",
            "orbit_class_description": "Near-Earth asteroid orbits which cross the Earth’s orbit similar to that of 1862 Apollo",
            "orbit_class_range": "a (semi-major axis) > 1.0 AU; q (perihelion) < 1.017 AU"
        }
    },
    "is_sentry_object": false
}